GNOMES-1                
1 46266U 20059B   26068.53916665  .00004080  00000+0  33422-3 0  9991
2 46266  97.8057 278.7760 0005451 357.8604   2.2595 14.99848479300657
STARLINK-5597           
1 55403U 23014N   26068.40878669  .00000136  00000+0  19206-4 0  9998
2 55403  69.9996  65.1544 0003437 268.5809  91.4956 14.98331021172014
